QIANFAN-89              
1 63175U 25046S   25207.19050069  .00000118  00000+0  16325-3 0  9994
2 63175  88.9855 334.4118 0017382 163.2965 196.8762 13.50961268 28565
QIANFAN-90              
1 63176U 25046T   25207.14521920  .00000125  00000+0  17461-3 0  9999
2 63176  88.9855 334.3885 0014388 160.4755 199.6950 13.50959705 28579
